57031,OBJECT AD,2023,95.24,-1.0,+,97.46,Active,0,LEO,PRC,China,Unknown,Unknown,Unknown,1 57031U 23085AD  24022.46455635  .00011022  00000+0  64481-3 0  9993,2 57031  97.4637 128.7711 0012781 263.9943  95.9831 15.11952584 33390,15.11952584,0.0012781,LEO
57032,OBJECT AE,2023,95.16,-1.0,+,97.47,Active,0,LEO,PRC,China,Unknown,Unknown,Unknown,1 57032U 23085AE  24022.25321858  .00016080  00000+0  90787-3 0  9997,2 57032  97.4655 128.8190 0010898 247.0008 113.0074 15.13162453 33374,15.13162453,0.0010898,LEO
57033,OBJECT AF,2023,95.12,-1.0,+,97.46,Active,0,LEO,PRC,China,Unknown,Unknown,Unknown,1 57033U 23085AF  24022.28248071  .00014411  00000+0  79691-3 0  9993,2 57033  97.4648 129.0356 0009600 248.1154 111.9057 15.13942100 33392,15.139421,0.00096,LEO
57034,OBJECT AG,2023,95.17,-1.0,+,97.47,Active,0,LEO,PRC,China,Unknown,Unknown,Unknown,1 57034U 23085AG  24022.25350519  .00016314  00000+0  92169-3 0  9991,2 57034  97.4662 128.8380 0010548 249.2190 110.7912 15.13138336 33371,15.13138336,0.0010548,LEO
57038,OBJECT AL,2023,95.24,-1.0,+,97.47,Active,0,LEO,PRC,China,Unknown,Unknown,Unknown,1 57038U 23085AL  24022.25645245  .00011048  00000+0  64588-3 0  9991,2 57038  97.4652 128.6389 0013178 277.9734  82.0001 15.11972982 33365,15.11972982,0.0013178,LEO
57039,OBJECT AM,2023,95.17,-1.0,+,97.46,Active,0,LEO,PRC,China,Unknown,Unknown,Unknown,1 57039U 23085AM  24022.43959834  .00016843  00000+0  95145-3 0  9995,2 57039  97.4622 128.9244 0010514 254.8308 105.1761 15.13135682 33403,15.13135682,0.0010514,LEO
57040,OBJECT AN,2023,95.15,-1.0,+,97.46,Active,0,LEO,PRC,China,Unknown,Unknown,Unknown,1 57040U 23085AN  24022.29625390  .00016485  00000+0  92255-3 0  9999,2 57040  97.4599 128.7482 0011312 248.3010 111.7018 15.13469111 33387,15.13469111,0.0011312,LEO
57041,OBJECT AP,2023,95.17,-1.0,+,97.47,Active,0,LEO,PRC,China,Unknown,Unknown,Unknown,1 57041U 23085AP  24022.29713884  .00016301  00000+0  92109-3 0  9991,2 57041  97.4663 128.9223 0010852 254.6039 105.3993 15.13129475 33381,15.13129475,0.0010852,LEO
57043,OBJECT AR,2023,95.16,-1.0,+,97.47,Active,0,LEO,PRC,China,Unknown,Unknown,Unknown,1 57043U 23085AR  24022.23349947  .00016128  00000+0  91008-3 0  9996,2 57043  97.4652 128.8197 0011178 255.9043 104.0946 15.13179106 33370,15.13179106,0.0011178,LEO
57044,OBJECT AS,2023,95.24,-1.0,+,97.46,Active,0,LEO,PRC,China,Unknown,Unknown,Unknown,1 57044U 23085AS  24022.24162769  .00011971  00000+0  69935-3 0  9998,2 57044  97.4632 128.5953 0016023 280.0862  79.8560 15.11942521 33365,15.11942521,0.0016023,LEO
57047,SHIYAN 25 (SY-25),2023,89.93,-1.0,+,96.5,Active,0,LEO,PRC,China,Unknown,Unknown,Unknown,1 57047U 23087A   24022.68053990  .00006000  18470-5  11818-4 0  9997,2 57047  96.4975  97.8732 0021439 207.6754 280.9023 16.01168874 34554,16.01168874,0.0021439,LEO
