[{"OBJECT_NAME":"2023-085AD","OBJECT_ID":"2023-085AD","EPOCH":"2024-01-22T11:08:57.668640","MEAN_MOTION":15.11952584,"ECCENTRICITY":0.0012781,"INCLINATION":97.4637,"RA_OF_ASC_NODE":128.7711,"ARG_OF_PERICENTER":263.9943,"MEAN_ANOMALY":95.9831,"EPHEMERIS_TYPE":0,"CLASSIFICATION_TYPE":"U","NORAD_CAT_ID":57031,"ELEMENT_SET_NO":999,"REV_AT_EPOCH":3339,"BSTAR":0.00064481,"MEAN_MOTION_DOT":0.00011022,"MEAN_MOTION_DDOT":0},{"OBJECT_NAME":"2023-085AE","OBJECT_ID":"2023-085AE","EPOCH":"2024-01-22T06:04:38.085312","MEAN_MOTION":15.13162453,"ECCENTRICITY":0.0010898,"INCLINATION":97.4655,"RA_OF_ASC_NODE":128.819,"ARG_OF_PERICENTER":247.0008,"MEAN_ANOMALY":113.0074,"EPHEMERIS_TYPE":0,"CLASSIFICATION_TYPE":"U","NORAD_CAT_ID":57032,"ELEMENT_SET_NO":999,"REV_AT_EPOCH":3337,"BSTAR":0.00090787,"MEAN_MOTION_DOT":0.0001608,"MEAN_MOTION_DDOT":0},{"OBJECT_NAME":"2023-085AF","OBJECT_ID":"2023-085AF","EPOCH":"2024-01-22T06:46:46.333344","MEAN_MOTION":15.139421,"ECCENTRICITY":0.00096,"INCLINATION":97.4648,"RA_OF_ASC_NODE":129.0356,"ARG_OF_PERICENTER":248.1154,"MEAN_ANOMALY":111.9057,"EPHEMERIS_TYPE":0,"CLASSIFICATION_TYPE":"U","NORAD_CAT_ID":57033,"ELEMENT_SET_NO":999,"REV_AT_EPOCH":3339,"BSTAR":0.00079691,"MEAN_MOTION_DOT":0.00014411,"MEAN_MOTION_DDOT":0},{"OBJECT_NAME":"2023-085AG","OBJECT_ID":"2023-085AG","EPOCH":"2024-01-22T06:05:02.848416","MEAN_MOTION":15.13138336,"ECCENTRICITY":0.0010548,"INCLINATION":97.4662,"RA_OF_ASC_NODE":128.838,"ARG_OF_PERICENTER":249.219,"MEAN_ANOMALY":110.7912,"EPHEMERIS_TYPE":0,"CLASSIFICATION_TYPE":"U","NORAD_CAT_ID":57034,"ELEMENT_SET_NO":999,"REV_AT_EPOCH":3337,"BSTAR":0.00092169,"MEAN_MOTION_DOT":0.00016314,"MEAN_MOTION_DDOT":0},{"OBJECT_NAME":"2023-085AL","OBJECT_ID":"2023-085AL","EPOCH":"2024-01-22T06:09:17.491680","MEAN_MOTION":15.11972982,"ECCENTRICITY":0.0013178,"INCLINATION":97.4652,"RA_OF_ASC_NODE":128.6389,"ARG_OF_PERICENTER":277.9734,"MEAN_ANOMALY":82.0001,"EPHEMERIS_TYPE":0,"CLASSIFICATION_TYPE":"U","NORAD_CAT_ID":57038,"ELEMENT_SET_NO":999,"REV_AT_EPOCH":3336,"BSTAR":0.00064588,"MEAN_MOTION_DOT":0.00011048,"MEAN_MOTION_DDOT":0},{"OBJECT_NAME":"2023-085AM","OBJECT_ID":"2023-085AM","EPOCH":"2024-01-22T10:33:01.296576","MEAN_MOTION":15.13135682,"ECCENTRICITY":0.0010514,"INCLINATION":97.4622,"RA_OF_ASC_NODE":128.9244,"ARG_OF_PERICENTER":254.8308,"MEAN_ANOMALY":105.1761,"EPHEMERIS_TYPE":0,"CLASSIFICATION_TYPE":"U","NORAD_CAT_ID":57039,"ELEMENT_SET_NO":999,"REV_AT_EPOCH":3340,"BSTAR":0.00095145,"MEAN_MOTION_DOT":0.00016843,"MEAN_MOTION_DDOT":0},{"OBJECT_NAME":"2023-085AN","OBJECT_ID":"2023-085AN","EPOCH":"2024-01-22T07:06:36.336960","MEAN_MOTION":15.13469111,"ECCENTRICITY":0.0011312,"INCLINATION":97.4599,"RA_OF_ASC_NODE":128.7482,"ARG_OF_PERICENTER":248.301,"MEAN_ANOMALY":111.7018,"EPHEMERIS_TYPE":0,"CLASSIFICATION_TYPE":"U","NORAD_CAT_ID":57040,"ELEMENT_SET_NO":999,"REV_AT_EPOCH":3338,"BSTAR":0.00092255,"MEAN_MOTION_DOT":0.00016485,"MEAN_MOTION_DDOT":0},{"OBJECT_NAME":"2023-085AP","OBJECT_ID":"2023-085AP","EPOCH":"2024-01-22T07:07:52.795776","MEAN_MOTION":15.13129475,"ECCENTRICITY":0.0010852,"INCLINATION":97.4663,"RA_OF_ASC_NODE":128.9223,"ARG_OF_PERICENTER":254.6039,"MEAN_ANOMALY":105.3993,"EPHEMERIS_TYPE":0,"CLASSIFICATION_TYPE":"U","NORAD_CAT_ID":57041,"ELEMENT_SET_NO":999,"REV_AT_EPOCH":3338,"BSTAR":0.00092109,"MEAN_MOTION_DOT":0.00016301,"MEAN_MOTION_DDOT":0},{"OBJECT_NAME":"2023-085AR","OBJECT_ID":"2023-085AR","EPOCH":"2024-01-22T05:36:14.354208","MEAN_MOTION":15.13179106,"ECCENTRICITY":0.0011178,"INCLINATION":97.4652,"RA_OF_ASC_NODE":128.8197,"ARG_OF_PERICENTER":255.9043,"MEAN_ANOMALY":104.0946,"EPHEMERIS_TYPE":0,"CLASSIFICATION_TYPE":"U","NORAD_CAT_ID":57043,"ELEMENT_SET_NO":999,"REV_AT_EPOCH":3337,"BSTAR":0.00091008,"MEAN_MOTION_DOT":0.00016128,"MEAN_MOTION_DDOT":0},{"OBJECT_NAME":"2023-085AS","OBJECT_ID":"2023-085AS","EPOCH":"2024-01-22T05:47:56.632416","MEAN_MOTION":15.11942521,"ECCENTRICITY":0.0016023,"INCLINATION":97.4632,"RA_OF_ASC_NODE":128.5953,"ARG_OF_PERICENTER":280.0862,"MEAN_ANOMALY":79.856,"EPHEMERIS_TYPE":0,"CLASSIFICATION_TYPE":"U","NORAD_CAT_ID":57044,"ELEMENT_SET_NO":999,"REV_AT_EPOCH":3336,"BSTAR":0.00069935,"MEAN_MOTION_DOT":0.00011971,"MEAN_MOTION_DDOT":0},{"OBJECT_NAME":"SHIYAN 25 (SY-25)","OBJECT_ID":"2023-087A","EPOCH":"2024-01-22T16:19:58.647360","MEAN_MOTION":16.01168874,"ECCENTRICITY":0.0021439,"INCLINATION":96.4975,"RA_OF_ASC_NODE":97.8732,"ARG_OF_PERICENTER":207.6754,"MEAN_ANOMALY":280.9023,"EPHEMERIS_TYPE":0,"CLASSIFICATION_TYPE":"U","NORAD_CAT_ID":57047,"ELEMENT_SET_NO":999,"REV_AT_EPOCH":3455,"BSTAR":1.1818e-5,"MEAN_MOTION_DOT":6.0e-5,"MEAN_MOTION_DDOT":1.847e-6}]
